{
  "type": "FeatureCollection",
  "features": [
    {
      "type": "Feature",
      "properties": {
        "norad_id": 34314,
        "name": "COSMOS 2251 DEB",
        "group": "cosmos-2251-debris",
        "lat": 52.45904831447548,
        "lon": 99.83939768367217,
        "alt_km": 812.377402162555,
        "timestamp": "2025-12-16T10:53:45.865083+00:00",
        "meta_object_name": "COSMOS 2251 DEB",
        "meta_object_id": "1993-036NL",
        "meta_epoch": "2025-12-15T22:43:38.334144",
        "meta_mean_motion": 14.17431069,
        "meta_eccentricity": 0.0102968,
        "meta_inclination": 74.0056,
        "meta_ra_of_asc_node": 302.6595,
        "meta_arg_of_pericenter": 47.5726,
        "meta_mean_anomaly": 9.4022,
        "meta_ephemeris_type": 0,
        "meta_classification_type": "U",
        "meta_norad_cat_id": 34314,
        "meta_element_set_no": 999,
        "meta_rev_at_epoch": 86703,
        "meta_bstar": 0.00053240186,
        "meta_mean_motion_dot": 1.112e-05,
        "meta_mean_motion_ddot": 0,
        "tle_line1": "1 34314U 93036NL  25349.94697146  .00001112  00000+0  53240-3 0  9996",
        "tle_line2": "2 34314  74.0056 302.6595 0102968  47.5726   9.4022 14.17431069867033"
      },
      "geometry": {
        "type": "Point",
        "coordinates": [
          99.83939768367217,
          52.45904831447548
        ]
      }
    },
    {
      "type": "Feature",
      "properties": {
        "norad_id": 34316,
        "name": "COSMOS 2251 DEB",
        "group": "cosmos-2251-debris",
        "lat": -46.989616818027415,
        "lon": 167.28354577284793,
        "alt_km": 604.3197412760928,
        "timestamp": "2025-12-16T10:53:45.865093+00:00",
        "meta_object_name": "COSMOS 2251 DEB",
        "meta_object_id": "1993-036NN",
        "meta_epoch": "2025-12-15T22:36:21.827520",
        "meta_mean_motion": 14.91931398,
        "meta_eccentricity": 0.00085863,
        "meta_inclination": 74.0647,
        "meta_ra_of_asc_node": 330.4736,
        "meta_arg_of_pericenter": 53.5898,
        "meta_mean_anomaly": 306.6075,
        "meta_ephemeris_type": 0,
        "meta_classification_type": "U",
        "meta_norad_cat_id": 34316,
        "meta_element_set_no": 999,
        "meta_rev_at_epoch": 89257,
        "meta_bstar": 0.0011399646,
        "meta_mean_motion_dot": 0.00011528,
        "meta_mean_motion_ddot": 0,
        "tle_line1": "1 34316U 93036NN  25349.94191930  .00011528  00000+0  11400-2 0  9991",
        "tle_line2": "2 34316  74.0647 330.4736 0008586  53.5898 306.6075 14.91931398892574"
      },
      "geometry": {
        "type": "Point",
        "coordinates": [
          167.28354577284793,
          -46.989616818027415
        ]
      }
    },
    {
      "type": "Feature",
      "properties": {
        "norad_id": 34317,
        "name": "COSMOS 2251 DEB",
        "group": "cosmos-2251-debris",
        "lat": 73.23438646848108,
        "lon": 102.80539699162881,
        "alt_km": 905.5666606177083,
        "timestamp": "2025-12-16T10:53:45.865103+00:00",
        "meta_object_name": "COSMOS 2251 DEB",
        "meta_object_id": "1993-036NP",
        "meta_epoch": "2025-12-15T21:19:20.394336",
        "meta_mean_motion": 13.65124742,
        "meta_eccentricity": 0.03366223,
        "meta_inclination": 73.9245,
        "meta_ra_of_asc_node": 30.5745,
        "meta_arg_of_pericenter": 19.2259,
        "meta_mean_anomaly": 164.0331,
        "meta_ephemeris_type": 0,
        "meta_classification_type": "U",
        "meta_norad_cat_id": 34317,
        "meta_element_set_no": 999,
        "meta_rev_at_epoch": 83662,
        "meta_bstar": 0.00040294398,
        "meta_mean_motion_dot": 4.59e-06,
        "meta_mean_motion_ddot": 0,
        "tle_line1": "1 34317U 93036NP  25349.88843049  .00000459  00000+0  40294-3 0  9995",
        "tle_line2": "2 34317  73.9245  30.5745 0336622  19.2259 164.0331 13.65124742836622"
      },
      "geometry": {
        "type": "Point",
        "coordinates": [
          102.80539699162881,
          73.23438646848108
        ]
      }
    },
    {
      "type": "Feature",
      "properties": {
        "norad_id": 34321,
        "name": "COSMOS 2251 DEB",
        "group": "cosmos-2251-debris",
        "lat": 0.23702430931500795,
        "lon": -30.68455107011216,
        "alt_km": 729.7497878123813,
        "timestamp": "2025-12-16T10:53:45.865113+00:00",
        "meta_object_name": "COSMOS 2251 DEB",
        "meta_object_id": "1993-036NT",
        "meta_epoch": "2025-12-15T21:30:59.968224",
        "meta_mean_motion": 14.50070173,
        "meta_eccentricity": 0.00158712,
        "meta_inclination": 74.0275,
        "meta_ra_of_asc_node": 150.4304,
        "meta_arg_of_pericenter": 279.7903,
        "meta_mean_anomaly": 231.046,
        "meta_ephemeris_type": 0,
        "meta_classification_type": "U",
        "meta_norad_cat_id": 34321,
        "meta_element_set_no": 999,
        "meta_rev_at_epoch": 88532,
        "meta_bstar": 0.00046368044,
        "meta_mean_motion_dot": 1.774e-05,
        "meta_mean_motion_ddot": 0,
        "tle_line1": "1 34321U 93036NT  25349.89652741  .00001774  00000+0  46368-3 0  9997",
        "tle_line2": "2 34321  74.0275 150.4304 0015871 279.7903 231.0460 14.50070173885326"
      },
      "geometry": {
        "type": "Point",
        "coordinates": [
          -30.68455107011216,
          0.23702430931500795
        ]
      }
    },
    {
      "type": "Feature",
      "properties": {
        "norad_id": 34323,
        "name": "COSMOS 2251 DEB",
        "group": "cosmos-2251-debris",
        "lat": 17.434826349930773,
        "lon": -69.3619491444242,
        "alt_km": 605.5414969040348,
        "timestamp": "2025-12-16T10:53:45.865123+00:00",
        "meta_object_name": "COSMOS 2251 DEB",
        "meta_object_id": "1993-036NV",
        "meta_epoch": "2025-12-15T18:25:58.771776",
        "meta_mean_motion": 14.74534894,
        "meta_eccentricity": 0.0058672,
        "meta_inclination": 73.9523,
        "meta_ra_of_asc_node": 117.1703,
        "meta_arg_of_pericenter": 160.4689,
        "meta_mean_anomaly": 321.4045,
        "meta_ephemeris_type": 0,
        "meta_classification_type": "U",
        "meta_norad_cat_id": 34323,
        "meta_element_set_no": 999,
        "meta_rev_at_epoch": 88484,
        "meta_bstar": 0.0016221435,
        "meta_mean_motion_dot": 0.00011084,
        "meta_mean_motion_ddot": 0,
        "tle_line1": "1 34323U 93036NV  25349.76804134  .00011084  00000+0  16221-2 0  9999",
        "tle_line2": "2 34323  73.9523 117.1703 0058672 160.4689 321.4045 14.74534894884848"
      },
      "geometry": {
        "type": "Point",
        "coordinates": [
          -69.3619491444242,
          17.434826349930773
        ]
      }
    },
    {
      "type": "Feature",
      "properties": {
        "norad_id": 34325,
        "name": "COSMOS 2251 DEB",
        "group": "cosmos-2251-debris",
        "lat": 19.29405067517731,
        "lon": 0.44900043218105407,
        "alt_km": 775.0365204036034,
        "timestamp": "2025-12-16T10:53:45.865133+00:00",
        "meta_object_name": "COSMOS 2251 DEB",
        "meta_object_id": "1993-036NX",
        "meta_epoch": "2025-12-15T13:45:48.195936",
        "meta_mean_motion": 14.04490591,
        "meta_eccentricity": 0.01920081,
        "meta_inclination": 73.8708,
        "meta_ra_of_asc_node": 187.8141,
        "meta_arg_of_pericenter": 204.5816,
        "meta_mean_anomaly": 186.2956,
        "meta_ephemeris_type": 0,
        "meta_classification_type": "U",
        "meta_norad_cat_id": 34325,
        "meta_element_set_no": 999,
        "meta_rev_at_epoch": 85555,
        "meta_bstar": 0.0012981518,
        "meta_mean_motion_dot": 2.416e-05,
        "meta_mean_motion_ddot": 0,
        "tle_line1": "1 34325U 93036NX  25349.57347449  .00002416  00000+0  12982-2 0  9990",
        "tle_line2": "2 34325  73.8708 187.8141 0192008 204.5816 186.2956 14.04490591855550"
      },
      "geometry": {
        "type": "Point",
        "coordinates": [
          0.44900043218105407,
          19.29405067517731
        ]
      }
    },
    {
      "type": "Feature",
      "properties": {
        "norad_id": 34327,
        "name": "COSMOS 2251 DEB",
        "group": "cosmos-2251-debris",
        "lat": 27.58112339249997,
        "lon": 173.06648052827063,
        "alt_km": 583.5898575674673,
        "timestamp": "2025-12-16T10:53:45.865144+00:00",
        "meta_object_name": "COSMOS 2251 DEB",
        "meta_object_id": "1993-036NZ",
        "meta_epoch": "2025-12-15T18:42:42.286176",
        "meta_mean_motion": 14.8925245,
        "meta_eccentricity": 0.00330126,
        "meta_inclination": 73.9934,
        "meta_ra_of_asc_node": 165.7929,
        "meta_arg_of_pericenter": 341.4939,
        "meta_mean_anomaly": 33.2429,
        "meta_ephemeris_type": 0,
        "meta_classification_type": "U",
        "meta_norad_cat_id": 34327,
        "meta_element_set_no": 999,
        "meta_rev_at_epoch": 89553,
        "meta_bstar": 0.00082121463,
        "meta_mean_motion_dot": 7.825e-05,
        "meta_mean_motion_ddot": 0,
        "tle_line1": "1 34327U 93036NZ  25349.77965609  .00007825  00000+0  82121-3 0  9990",
        "tle_line2": "2 34327  73.9934 165.7929 0033012 341.4939  33.2429 14.89252450895530"
      },
      "geometry": {
        "type": "Point",
        "coordinates": [
          173.06648052827063,
          27.58112339249997
        ]
      }
    }
  ]
}